IRIDIUM 150             
1 43257U 18030J   25129.81633282  .00000239  00000+0  78373-4 0  9990
2 43257  86.3932  99.1087 0002494  92.2010 267.9472 14.34221449372341
IRIDIUM 143             
1 43258U 18030K   25129.86707786  .00000137  00000+0  41861-4 0  9996
2 43258  86.3937  99.1646 0002715  92.5815 267.5692 14.34217895372283
IRIDIUM 161             
1 43478U 18047C   25129.80217448  .00000437  00000+0  12407-3 0  9999
2 43478  86.4476 256.9801 0002073  91.7062 268.4376 14.43276711366952
IRIDIUM 152             
1 43479U 18047D   25129.83979352  .00000191  00000+0  61148-4 0  9996
2 43479  86.3952 256.8248 0002043  96.6982 263.4446 14.34217163364673
IRIDIUM 147             
1 43480U 18047E   25129.84613749  .00000121  00000+0  36169-4 0  9992
2 43480  86.3953 256.8201 0002145  90.5859 269.5583 14.34217871364679
IRIDIUM 110             
1 43481U 18047F   25129.92224740  .00000139  00000+0  42564-4 0  9996
2 43481  86.3954 256.8697 0001698  90.4539 269.6852 14.34217406364670
IRIDIUM 162             
1 43482U 18047G   25129.72653814  .00000429  00000+0  12154-3 0  9996
2 43482  86.4477 256.9075 0001944  98.3499 261.7922 14.43283267366939
IRIDIUM 160             
1 43569U 18061A   25129.79831594  .00000047  00000+0  95862-5 0  9993
2 43569  86.4007 225.3048 0002024  92.6164 267.5264 14.34217853355557
